YAOGAN-43 02F           
1 60950U 24156F   26068.54203956  .00011154  00000+0  46453-3 0  9990
2 60950  34.9922 104.6026 0001164 214.3893 145.6747 15.22951134 84247
YAOGAN-43 03B           
1 61618U 24190B   26068.54371741  .00011265  00000+0  46414-3 0  9998
2 61618  34.9874 104.3622 0006549 178.8126 181.2605 15.23292973 76665
